[{"OBJECT_NAME":"IRIDIUM 148","OBJECT_ID":"2018-030G","EPOCH":"2026-03-09T17:19:11.405856","MEAN_MOTION":14.34218043,"ECCENTRICITY":0.00021734,"INCLINATION":86.4007,"RA_OF_ASC_NODE":332.0603,"ARG_OF_PERICENTER":85.9806,"MEAN_ANOMALY":274.1638,"EPHEMERIS_TYPE":0,"CLASSIFICATION_TYPE":"U","NORAD_CAT_ID":43255,"ELEMENT_SET_NO":999,"REV_AT_EPOCH":41591,"BSTAR":1.8722771e-5,"MEAN_MOTION_DOT":7.2e-7,"MEAN_MOTION_DDOT":0},{"OBJECT_NAME":"FENGYUN 1C DEB","OBJECT_ID":"1999-025AJC","EPOCH":"2026-03-09T07:15:38.814048","MEAN_MOTION":14.34729142,"ECCENTRICITY":0.01725289,"INCLINATION":98.4058,"RA_OF_ASC_NODE":94.5789,"ARG_OF_PERICENTER":195.9031,"MEAN_ANOMALY":163.6697,"EPHEMERIS_TYPE":0,"CLASSIFICATION_TYPE":"U","NORAD_CAT_ID":30514,"ELEMENT_SET_NO":999,"REV_AT_EPOCH":99466,"BSTAR":0.00048663421,"MEAN_MOTION_DOT":1.583e-5,"MEAN_MOTION_DDOT":0}]
